BEIDOU-2 G8             
1 44231U 19027A   26169.28189819 -.00000254  00000+0  00000+0 0  9993
2 44231   1.6612  74.4911 0010156 281.8036 156.2505  1.00270428 26094
COSMOS 2534 [GLONASS-M] 
1 44299U 19030A   26167.15041896  .00000077  00000+0  00000+0 0  9999
2 44299  64.3685 192.6516 0013389 275.0852 148.6554  2.13102184 54908
BEIDOU-3 IGSO-2         
1 44337U 19035A   26165.62361995 -.00000071  00000+0  00000+0 0  9997
2 44337  55.2456 158.8849 0039904 216.4592 231.8306  1.00267330 25649
NAVSTAR 78 (USA 293)    
1 44506U 19056A   26168.65073419 -.00000087  00000+0  00000+0 0  9992
2 44506  55.6366 331.1236 0062201 197.6161 164.5159  2.00569508 50082
BEIDOU-3 M24            
1 44542U 19061A   26168.24244619  .00000060  00000+0  00000+0 0  9995
2 44542  54.3962 182.7262 0008313 358.7038   1.3256  1.86229098 45794
BEIDOU-3 M23            
1 44543U 19061B   26167.55603885  .00000067  00000+0  00000+0 0  9990
2 44543  54.3947 182.7174 0005670 338.0060 193.4228  1.86227264 45783
EUTELSAT 5 WEST B       
1 44624U 19067A   26169.10973104 -.00000048  00000+0  00000+0 0  9993
2 44624   0.0632 346.6166 0002974  97.5152 216.7543  1.00272185 24444
BEIDOU-3 M22            
1 44793U 19078A   26167.54530678 -.00000069  00000+0  00000+0 0  9996
2 44793  53.9366 299.8507 0006347  50.5966 309.4493  1.86227179 44634
BEIDOU-3 M21            
1 44794U 19078B   26167.14826715 -.00000069  00000+0  00000+0 0  9993
2 44794  53.9102 299.8261 0004221  48.5943 311.4305  1.86227629 44636
COSMOS 2544 [GLONASS-M] 
1 44850U 19088A   26168.02937784 -.00000019  00000+0  00000+0 0  9999
2 44850  65.5654  73.7363 0013154 258.7160 101.1709  2.13102676 50716
BEIDOU-3 M19            
1 44864U 19090A   26169.30061567 -.00000056  00000+0  00000+0 0  9997
2 44864  56.5601  62.7540 0017907 298.0064 262.3772  1.86231158 44257
BEIDOU-3 M20            
1 44865U 19090B   26169.15939806 -.00000055  00000+0  00000+0 0  9990
2 44865  56.5616  62.7933 0015663 312.0889 243.2035  1.86231085 44236
BEIDOU-3 G2             
1 45344U 20017A   26169.12637112 -.00000148  00000+0  00000+0 0  9999
2 45344   2.8666  47.3602 0002010  32.7419 311.8420  1.00271803 23265
COSMOS 2545 [GLONASS-M] 
1 45358U 20018A   26167.28584185 -.00000055  00000+0  00000+0 0  9998
2 45358  64.3556 312.4510 0008397 230.0424 129.8687  2.13102431 48644
BEIDOU-3 G3             
1 45807U 20040A   26169.27513816 -.00000360  00000+0  00000+0 0  9995
2 45807   2.4503  67.4478 0002342 336.1577  72.4371  1.00265804 22081
NAVSTAR 79 (USA 304)    
1 45854U 20041A   26165.55605578 -.00000064  00000+0  00000+0 0  9993
2 45854  56.6678  29.0455 0063716 204.6721  21.4099  2.00558471 43987
GALAXY 30 (G-30)        
1 46114U 20056C   26169.01466520  .00000031  00000+0  00000+0 0  9999
2 46114   0.0152  53.7844 0002139  33.3980  59.3498  1.00271591 21308
COSMOS 2547 [GLONASS-K] 
1 46805U 20075A   26163.72129992  .00000119  00000+0  00000+0 0  9995
2 46805  64.5993 192.6246 0009245 239.6069 120.3788  2.13100258 43813
NAVSTAR 80 (USA 309)    
1 46826U 20078A   26169.25666399  .00000032  00000+0  00000+0 0  9996
2 46826  53.9795 210.7350 0073583 207.2867 147.1088  2.00564817 41526
NAVSTAR 81 (USA 319)    
1 48859U 21054A   26167.95784770 -.00000087  00000+0  00000+0 0  9999
2 48859  55.1744 332.4683 0025342 228.5515  94.2637  2.00568788 36740
QZS-1R (MICHIBIKI-1R)   
1 49336U 21096A   26167.63839491 -.00000283  00000+0  00000+0 0  9990
2 49336  37.4612  79.5914 0754866 271.7927 277.3771  1.00255427 17004
GSAT0223 (GALILEO 27)   
1 49809U 21116A   26168.28632796 -.00000089  00000+0  00000+0 0  9993
2 49809  57.1604 341.6715 0001514 187.4025 353.2654  1.70475765 28189
GSAT0224 (GALILEO 28)   
1 49810U 21116B   26168.98509303 -.00000091  00000+0  00000+0 0  9992
2 49810  57.1613 341.6514 0001177 159.9709 202.1698  1.70475877 28225
COSMOS 2557 [GLONASS-K] 
1 52984U 22075A   26169.04745904 -.00000057  00000+0  00000+0 0  9992
2 52984  64.2981 314.4551 0010274 274.6944  85.1764  2.13102010 30737
COSMOS 2559 [GLONASS-K] 
1 54031U 22130A   26169.33634979 -.00000058  00000+0  00000+0 0  9991
2 54031  64.2705 314.5280 0012585 178.2040 181.7898  2.13101593 28710
COSMOS 2564 [GLONASS-M] 
1 54377U 22161A   26168.71035796  .00000060  00000+0  00000+0 0  9993
2 54377  64.7417 192.6944 0012199 224.8068 135.1469  2.13102007 27648
NAVSTAR 82 (USA 343)    
1 55268U 23009A   26167.62160980  .00000044  00000+0  00000+0 0  9990
2 55268  55.1227 148.5411 0006250 321.9869 156.3274  2.00571344 25231
BEIDOU-3 G4             
1 56564U 23066A   26169.28103152 -.00000287  00000+0  00000+0 0  9995
2 56564   0.4853 331.8225 0004356 180.3372 355.5712  1.00273363 11403
NVS-01 (IRNSS-1J)       
1 56759U 23076A   26169.27886485 -.00000342  00000+0  00000+0 0  9990
2 56759   2.1627 244.2917 0003127  36.1064 215.9343  1.00264298 11128
COSMOS 2569 [GLONASS-K2]
1 57517U 23114A   26166.84566003 -.00000023  00000+0  00000+0 0  9993
2 57517  65.3014  72.6657 0010732 296.8430  63.0791  2.13103628 22235
BEIDOU-3 M28            
1 58654U 23207A   26168.83624249 -.00000056  00000+0  00000+0 0  9993
2 58654  55.7532  62.2811 0003247 347.7630  12.2709  1.86229662 16856
